{
    "links": {
        "self": "http://www.neowsapp.com/rest/v1/neo/3428258?api_key=iIulBulltgU6a56xZRHN4H3l9WmuAYTsLGpBGhQ2"
    },
    "id": "3428258",
    "neo_reference_id": "3428258",
    "name": "(2008 SH148)",
    "designation": "2008 SH148",
    "nasa_jpl_url": "http://ssd.jpl.nasa.gov/sbdb.cgi?sstr=3428258",
    "absolute_magnitude_h": 26.1,
    "estimated_diameter": {
        "kilometers": {
            "estimated_diameter_min": 0.0160160338,
            "estimated_diameter_max": 0.0358129403
        },
        "meters": {
            "estimated_diameter_min": 16.0160337979,
            "estimated_diameter_max": 35.8129403019
        },
        "miles": {
            "estimated_diameter_min": 0.0099518989,
            "estimated_diameter_max": 0.0222531225
        },
        "feet": {
            "estimated_diameter_min": 52.5460443254,
            "estimated_diameter_max": 117.4965270602
        }
    },
    "is_potentially_hazardous_asteroid": false,
    "close_approach_data": [
        {
            "close_approach_date": "2008-10-04",
            "close_approach_date_full": "2008-Oct-04 12:39",
            "epoch_date_close_approach": 1223123940000,
            "relative_velocity": {
                "kilometers_per_second": "10.8218878342",
                "kilometers_per_hour": "38958.7962032482",
                "miles_per_hour": "24207.4808964016"
            },
            "miss_distance": {
                "astronomical": "0.0144679559",
                "lunar": "5.6280348451",
                "kilometers": "2164375.385893933",
                "miles": "1344880.5018569554"
            },
            "orbiting_body": "Earth"
        }
    ],
    "orbital_data": {
        "orbit_id": "6",
        "orbit_determination_date": "2017-04-06 09:02:49",
        "first_observation_date": "2008-09-29",
        "last_observation_date": "2008-09-29",
        "data_arc_in_days": null,
        "observations_used": 11,
        "orbit_uncertainty": "9",
        "minimum_orbit_intersection": ".0094754",
        "jupiter_tisserand_invariant": "3.015",
        "epoch_osculation": "2454738.5",
        "eccentricity": ".6500896674894493",
        "semi_major_axis": "2.708762000291902",
        "inclination": "3.607103810917164",
        "ascending_node_longitude": "202.3550454266322",
        "orbital_period": "1628.376024417529",
        "perihelion_distance": ".9478238122140837",
        "perihelion_argument": "200.5850050357272",
        "aphelion_distance": "4.46970018836972",
        "perihelion_time": "2454767.492691439738",
        "mean_anomaly": "353.5903201952146",
        "mean_motion": ".2210791577631905",
        "equinox": "J2000",
        "orbit_class": {
            "orbit_class_type": "APO",
            "orbit_class_description": "Near-Earth asteroid orbits which cross the Earth’s orbit similar to that of 1862 Apollo",
            "orbit_class_range": "a (semi-major axis) > 1.0 AU; q (perihelion) < 1.017 AU"
        }
    },
    "is_sentry_object": false
}